[Satellite]
VERSION=1.1
NAME=DMC3-FM3
NICKNAME=DMC3-FM3
TLE1=1 40717U 15032C   17186.21069816 -.00000002  00000-0  75612-5 0  9995
TLE2=2 40717  98.0384  82.3977 0018473  81.3431 278.9870 14.73677190106858
